HORYU-4                 
1 41340U 16012D   19310.72330891  .00000460  00000-0  28163-4 0  9993
2 41340  31.0056 316.4151 0013965  88.4246 271.7989 15.01351664204221
E-ST@R-II               
1 41459U 16025D   19311.03253254  .00000380  00000-0  24010-4 0  9998
2 41459  98.0978  44.6453 0165477 243.0218 115.4026 15.05759460193815
AAUSAT 4                
1 41460U 16025E   19311.15877247  .00001480  00000-0  77733-4 0  9999
2 41460  98.0938  46.3910 0155482 233.8204 124.8561 15.07776383193988
DIWATA-1                
1 41463U 98067HT  19311.14062750  .00041737  00000-0  14338-3 0  9992
2 41463  51.6267 228.9170 0002370 101.8958 357.3623 15.89195595202202
BEESAT-4                
1 41619U 16040W   19310.42204218  .00001305  00000-0  57690-4 0  9999
2 41619  97.3519   9.9212 0009749 244.7972 115.2255 15.23435751175284
CANX-7                  
1 41788U 16059F   19310.99457211  .00006546  00000-0  96635-3 0  9994
2 41788  98.2443  28.8335 0024488 275.9489  83.8911 14.75422686166838
RAVAN                   
1 41849U 16067B   19311.17535872  .00001135  00000-0  10039-3 0  9995
2 41849  97.9264  52.4464 0006331 265.6923  94.3576 14.98357482163180
CELTEE 1                
1 41850U 16067C   19310.23677273  .00000732  00000-0  68789-4 0  9993
2 41850  97.9215  49.8430 0007037 275.8753  84.1665 14.97074587162950
OPTICUBE 04             
1 41851U 16067D   19310.73267995 -.00000294  00000-0 -20375-4 0  9999
2 41851  97.9200  50.0764 0007717 276.8998  83.1345 14.96847027163014
AEROCUBE 8D             
1 41852U 16067E   19310.74294274  .00000193  00000-0  22140-4 0  9999
2 41852  97.9206  49.9129 0008421 275.4989  84.5271 14.96780889162992
AEROCUBE 8C             
1 41853U 16067F   19310.76923616  .00000707  00000-0  67172-4 0  9996
2 41853  97.9214  49.8641 0008311 277.6682  82.3595 14.96751032162995
PROMETHEUS 2-1          
1 41854U 16067G   19310.71474018  .00000217  00000-0  24126-4 0  9997
2 41854  97.9224  50.0099 0008728 277.5893  82.4336 14.97005604162995
PROMETHEUS 2-3          
1 41855U 16067H   19311.18442177  .00000040  00000-0  87873-5 0  9994
2 41855  97.9227  50.5074 0008991 276.4878  83.5320 14.97012177163067
INS-1B                  
1 41954U 17008G   19311.18086883  .00001206  00000-0  52326-4 0  9997
2 41954  97.3849  14.2671 0009445  18.2501 341.9074 15.24242599151351
BGUSAT                  
1 41999U 17008BD  19310.62919520  .00002038  00000-0  80585-4 0  9999
2 41999  97.3940  16.7158 0008681  33.1206 327.0575 15.26598704150790
DIDO-2                  
1 42000U 17008BE  19311.17793165  .00000830  00000-0  37053-4 0  9999
2 42000  97.3860  14.8149 0009336  36.3271 323.8598 15.24108788150751
PEASSS                  
1 42015U 17008BV  19310.65658841  .00001075  00000-0  45759-4 0  9992
2 42015  97.3874  15.4853 0007378  44.8281 315.3552 15.25126416151239
AL-FARABI 1             
1 42016U 17008BW  19310.65975817  .00001386  00000-0  56975-4 0  9995
2 42016  97.3891  16.2001 0007217  44.4496 315.7321 15.25830564151390
NAYIF-1 (EO-88)         
1 42017U 17008BX  19310.64408871  .00001377  00000-0  56556-4 0  9991
2 42017  97.3888  16.1958 0007240  44.3694 315.8124 15.25866799151416
ALTAIR PATHFINDER       
1 42711U 98067LS  19311.13848643  .00194188  26966-4  37104-3 0  9999
2 42711  51.6277 269.1203 0004004  88.1732 271.9736 16.00168056141559
NSIGHT                  
1 42726U 98067MF  19311.09491981  .00039634  00000-0  22870-3 0  9994
2 42726  51.6326 302.4597 0005306  28.2107 331.9180 15.78230676140094
UCLSAT                  
1 42765U 17036A   19311.13846964  .00001154  00000-0  51915-4 0  9993
2 42765  97.3345   6.0110 0013124  92.5749 267.6990 15.23014807131995
LITUANICASAT-2          
1 42768U 17036D   19310.57994235  .00001849  00000-0  80745-4 0  9992
2 42768  97.3388   5.1643 0016623  85.8625 274.4511 15.23239200131756
AALTO-1                 
1 42775U 17036L   19310.60875805  .00000704  00000-0  34235-4 0  9997
2 42775  97.3326   3.9065 0015656  86.7379 273.5648 15.21516263131634
URSA MAIOR              
1 42776U 17036M   19310.62239859  .00000793  00000-0  37989-4 0  9990
2 42776  97.3337   4.1153 0015470  86.6876 273.6130 15.21665614131646
COMPASS 2               
1 42777U 17036N   19311.11817015  .00001479  00000-0  65243-4 0  9998
2 42777  97.3381   6.1559 0014145  85.3533 274.9319 15.23251781131799
DIAMOND RED             
1 42783U 17036U   19310.57858850  .00000893  00000-0  41523-4 0  9990
2 42783  97.3345   4.9474 0013823  95.6572 264.6241 15.22421582131682
PEGASUS                 
1 42784U 17036V   19310.59520949  .00001029  00000-0  46942-4 0  9990
2 42784  97.3349   5.2541 0013707  94.9597 265.3205 15.22745389131701
DIAMOND GREEN           
1 42785U 17036W   19310.57743948  .00000909  00000-0  42196-4 0  9998
2 42785  97.3348   4.9744 0013726  96.1726 264.1075 15.22421400131753
DIAMOND BLUE            
1 42786U 17036X   19310.64232665  .00000896  00000-0  41668-4 0  9994
2 42786  97.3347   5.0348 0013581  96.2521 264.0263 15.22421726131689
NUDTSAT                 
1 42787U 17036Y   19310.89348969  .00002042  00000-0  87445-4 0  9995
2 42787  97.3373   6.4715 0013079  90.3116 269.9612 15.23837447131649
SUCHAI                  
1 42788U 17036Z   19310.62789807  .00001251  00000-0  55714-4 0  9992
2 42788  97.3356   5.6853 0013264  94.0100 266.2653 15.23206650131804
SKCUBE                  
1 42789U 17036AA  19310.58794918  .00001150  00000-0  51631-4 0  9999
2 42789  97.3351   5.5593 0013146  94.2527 266.0213 15.23086803131710
VZLUSAT-1               
1 42790U 17036AB  19310.15848851  .00001560  00000-0  67534-4 0  9994
2 42790  97.3370   5.7512 0012655  94.4688 265.7995 15.23820339131689
ROBUSTA-1B              
1 42792U 17036AD  19310.63430422  .00001153  00000-0  51493-4 0  9995
2 42792  97.3352   5.7895 0012723  94.5997 265.6694 15.23265237131747
CICERO 6                
1 42793U 17036AE  19310.60311141  .00000782  00000-0  36360-4 0  9992
2 42793  97.3333   5.4209 0011997  96.4046 263.8557 15.22774979131791
D-SAT                   
1 42794U 17036AF  19310.59435051  .00000327  00000-0  33595-4 0  9990
2 42794  97.5236 348.9764 0127212  32.5565 328.3417 14.91162223129339
CORVUS BC2              
1 42846U 17042X   19310.65194578  .00000255  00000-0  30357-4 0  9991
2 42846  97.5471 198.8897 0008485 311.6088  48.4404 14.92021106126033
CORVUS BC1              
1 42847U 17042Y   19311.13218744  .00000064  00000-0  11523-4 0  9990
2 42847  97.5472 199.4798 0008065 309.4838  50.5667 14.92121854126108
MIRATA                  
1 43015U 17073C   19311.07576261  .00001268  00000-0  10291-3 0  9993
2 43015  97.7182 226.7833 0255972  57.1412 305.4160 14.79200653106193
MAKERSAT 0              
1 43016U 17073D   19310.70989812  .00000918  00000-0  75834-4 0  9999
2 43016  97.7216 226.6346 0258331  58.9193 303.7096 14.78894134106132
ASTERIA                 
1 43020U 98067NH  19311.18356593  .00041882  00000-0  24857-3 0  9996
2 43020  51.6397 313.8824 0002036  15.6756 344.4307 15.77587155112136
DELLINGR (RBLE)         
1 43021U 98067NJ  19311.10520905  .00010203  00000-0  10552-3 0  9999
2 43021  51.6383 336.5165 0001574 312.3491  47.7371 15.65406345111828
AEROCUBE 7B (OCSD B)    
1 43042U 17071F   19310.76457055  .00003651  00000-0  93758-4 0  9993
2 43042  51.6375  82.8534 0004068 311.7992  48.2645 15.41996258107841
AEROCUBE 7C (OCSD C)    
1 43043U 17071G   19310.76467762  .00003520  00000-0  90756-4 0  9990
2 43043  51.6375  82.8688 0004290 316.3680  43.6966 15.41984359107815
CHEFSAT                 
1 43044U 17071H   19310.75097713  .00007146  00000-0  15650-3 0  9992
2 43044  51.6390  74.6970 0004196 315.0162  45.0485 15.45240386107925
ASGARDIA 1              
1 43049U 17071N   19310.51123040  .00003854  00000-0  98074-4 0  9998
2 43049  51.6386  83.4711 0002005 339.5058  20.5846 15.42103942107773
ISARA                   
1 43050U 17071P   19310.74895419  .00006490  00000-0  14573-3 0  9991
2 43050  51.6373  76.1187 0001888 334.8832  25.2062 15.44662700107904
PROPCUBE 2 (FAUNA)      
1 43052U 17071R   19310.74867287  .00003396  00000-0  86612-4 0  9991
2 43052  51.6383  81.3259 0001935 336.3658  23.7238 15.42438061107829
CORVUS BC3              
1 43118U 18004H   19311.13493917  .00000723  00000-0  33721-4 0  9994
2 43118  97.4723  17.9216 0011969 113.2275 247.0223 15.23028561101009
MICROMAS-2A             
1 43131U 18004W   19310.42390521  .00001707  00000-0  72285-4 0  9998
2 43131  97.4757  18.2467 0010862 115.9291 244.3067 15.24513941100952
SPACEBEE-4              
1 43139U 18004AE  19311.14908104  .00002530  00000-0  10264-3 0  9991
2 43139  97.4781  19.6803 0010321 115.7440 244.4864 15.25512362101099
SPACEBEE-3              
1 43140U 18004AF  19310.68114873  .00002946  00000-0  11679-3 0  9995
2 43140  97.4792  19.5972 0010051 116.6968 243.5300 15.26154200101059
SPACEBEE-2              
1 43141U 18004AG  19310.63353057  .00003147  00000-0  12375-3 0  9998
2 43141  97.4802  19.6834 0010033 116.5134 243.7134 15.26376009101054
SPACEBEE-1              
1 43142U 18004AH  19311.16970828  .00003521  00000-0  13707-3 0  9995
2 43142  97.4804  20.3694 0009984 114.9550 245.2727 15.26629076101136
CICERO 7                
1 43143U 18004AJ  19311.15825745  .00001602  00000-0  67829-4 0  9995
2 43143  97.4739  19.1909 0008947 120.7720 239.4399 15.24622652101086
GOMX-4B                 
1 43196U 18015E   19310.47742062  .00000410  00000-0  19780-4 0  9998
2 43196  97.4098  76.2029 0018848 168.6881 191.4780 15.24056657 97787
GOMX-4A                 
1 43197U 18015F   19311.06215449  .00000518  00000-0  24110-4 0  9991
2 43197  97.4098  76.8187 0019414 166.1811 312.0718 15.24179518 97880
1KUNS-PF                
1 43466U 98067NP  19310.51693509  .00027287  00000-0  20634-3 0  9999
2 43466  51.6356 337.0083 0002339  22.9402 337.1700 15.72209715 85026
